OBJECT_NAME,OBJECT_ID,EPOCH,MEAN_MOTION,ECCENTRICITY,INCLINATION,RA_OF_ASC_NODE,ARG_OF_PERICENTER,MEAN_ANOMALY,EPHEMERIS_TYPE,CLASSIFICATION_TYPE,NORAD_CAT_ID,ELEMENT_SET_NO,REV_AT_EPOCH,BSTAR,MEAN_MOTION_DOT,MEAN_MOTION_DDOT
CUTE-1 (CO-55),2003-031E,2026-07-10T00:11:45.746304,14.24349450,.00107182,98.6739,199.2802,116.0719,244.1564,0,U,27844,999,19492,.97602803E-4,.182E-5,0
CUBESAT XI-IV (CO-57),2003-031J,2026-07-09T12:23:12.233184,14.23632552,.00103422,98.6771,198.4889,134.3964,225.8063,0,U,27848,999,19455,.91111366E-4,.164E-5,0
APRIZESAT 4,2009-041D,2026-07-10T14:07:01.179840,14.83909911,.00420086,98.1405,267.3745,244.8711,114.8142,0,U,35684,999,91483,.54416263E-4,.399E-5,0
APRIZESAT 3,2009-041F,2026-07-10T05:41:28.726656,14.96300654,.00611381,98.2087,345.5692,352.2425,7.7843,0,U,35686,999,91982,.98316759E-4,.1084E-4,0
APRIZESAT 5,2011-044E,2026-07-08T18:15:41.477472,14.81120449,.0050828,98.2450,123.4135,293.9839,65.6055,0,U,37792,999,80198,.92978597E-4,.678E-5,0
APRIZESAT 6,2011-044F,2026-07-10T14:22:06.180960,14.76952502,.00434347,98.2344,102.5747,12.9073,106.0376,0,U,37793,999,80060,.70838596E-4,.45E-5,0
PROBA-V,2013-021A,2026-07-10T09:12:02.223648,14.23602924,.00053781,98.3602,168.8465,71.1313,289.0449,0,U,39159,999,68441,.43640222E-4,.58E-6,0
APRIZESAT 8,2013-066K,2026-07-10T06:41:52.543104,14.87691705,.00450896,97.8227,138.4264,208.2637,151.6132,0,U,39425,999,68310,.60493228E-4,.504E-5,0
APRIZESAT 9,2014-033J,2026-07-09T14:32:28.813920,14.74247790,.00672461,97.9087,323.2598,127.5578,233.1765,0,U,40018,999,64686,.77297808E-4,.477E-5,0
APRIZESAT 10,2014-033K,2026-07-09T07:17:04.716384,14.70906398,.00782609,97.9675,316.7729,202.2274,157.5534,0,U,40019,999,64550,.74621834E-4,.426E-5,0
TECHDEMOSAT-1 (TDS-1),2014-037H,2026-07-10T10:20:24.311616,15.13637457,.00064586,98.3822,185.9542,173.2380,186.8937,0,U,40076,999,65174,.25869649E-3,.4573E-4,0
TECHNOSAT,2017-042E,2026-07-10T09:16:19.420032,15.05092056,.0017861,97.4303,348.1655,18.8202,341.3681,0,U,42829,999,49019,.18607478E-3,.2596E-4,0
HAWK-A,2018-099H,2026-07-10T10:45:30.625632,15.24925601,.00342248,97.3905,243.3829,200.7420,159.2431,0,U,43765,999,41664,.18327804E-3,.4564E-4,0
HAWK-C,2018-099AT,2026-07-10T13:38:13.237728,15.28444337,.00398342,97.3884,244.5291,200.2244,159.7420,0,U,43799,999,41748,.20835631E-3,.5828E-4,0
SALSAT,2020-068K,2026-07-10T10:17:36.763872,15.30129687,.00086995,97.8857,195.9138,210.5134,149.5600,0,U,46495,999,31891,.18731159E-3,.5381E-4,0
HAWK-2B,2021-006CZ,2026-07-10T13:18:10.132416,15.35093531,.00086365,97.2184,234.3861,115.6136,244.6001,0,U,47508,999,30308,.15391611E-3,.5168E-4,0
HAWK-3B,2021-059BE,2026-07-10T00:09:47.277216,15.71525502,.00040899,97.6649,29.9062,217.8107,142.2868,0,U,48931,999,28143,.27709148E-3,.35395E-3,0
HAWK-3C,2021-059BX,2026-07-10T00:09:20.910528,15.71533406,.00044041,97.6774,35.6306,218.4113,141.6836,0,U,48948,999,28143,.29488046E-3,.37702E-3,0
HAWK-3A,2021-059CG,2026-07-10T00:09:11.136960,15.71532739,.00043448,97.6711,32.8165,219.9841,140.1101,0,U,48957,999,28143,.29181336E-3,.37305E-3,0
HAWK-5C,2022-057Y,2026-07-10T09:17:30.818400,15.52214999,.00032534,97.6609,352.5682,5.8200,354.3089,0,U,52754,999,22994,.23464286E-3,.14129E-3,0
HAWK-5B,2022-057AA,2026-07-10T09:17:14.311680,15.52211827,.00039147,97.6625,350.9203,352.3729,7.7463,0,U,52756,999,22994,.2196449E-3,.13217E-3,0
