CUTE-1 (CO-55)          
1 27844U 03031E   26191.00816836  .00000182  00000+0  97603-4 0  9992
2 27844  98.6739 199.2802 0010718 116.0719 244.1564 14.24349450194929
CUBESAT XI-IV (CO-57)   
1 27848U 03031J   26190.51611381  .00000164  00000+0  91111-4 0  9997
2 27848  98.6771 198.4889 0010342 134.3964 225.8063 14.23632552194559
APRIZESAT 4             
1 35684U 09041D   26191.58820809  .00000399  00000+0  54416-4 0  9993
2 35684  98.1405 267.3745 0042009 244.8711 114.8142 14.83909911914832
APRIZESAT 3             
1 35686U 09041F   26191.23713804  .00001084  00000+0  98317-4 0  9993
2 35686  98.2087 345.5692 0061138 352.2425   7.7843 14.96300654919826
APRIZESAT 5             
1 37792U 11044E   26189.76089673  .00000678  00000+0  92979-4 0  9990
2 37792  98.2450 123.4135 0050828 293.9839  65.6055 14.81120449801980
APRIZESAT 6             
1 37793U 11044F   26191.59868264  .00000450  00000+0  70839-4 0  9995
2 37793  98.2344 102.5747 0043435  12.9073 106.0376 14.76952502800606
PROBA-V                 
1 39159U 13021A   26191.38335907  .00000058  00000+0  43640-4 0  9994
2 39159  98.3602 168.8465 0005378  71.1313 289.0449 14.23602924684416
APRIZESAT 8             
1 39425U 13066K   26191.27908036  .00000504  00000+0  60493-4 0  9997
2 39425  97.8227 138.4264 0045089 208.2637 151.6132 14.87691705683107
APRIZESAT 9             
1 40018U 14033J   26190.60588905  .00000477  00000+0  77298-4 0  9997
2 40018  97.9087 323.2598 0067246 127.5578 233.1765 14.74247790646869
APRIZESAT 10            
1 40019U 14033K   26190.30352681  .00000426  00000+0  74622-4 0  9997
2 40019  97.9675 316.7729 0078260 202.2274 157.5534 14.70906398645503
TECHDEMOSAT-1 (TDS-1)   
1 40076U 14037H   26191.43083694  .00004573  00000+0  25870-3 0  9991
2 40076  98.3822 185.9542 0006458 173.2380 186.8937 15.13637457651749
TECHNOSAT               
1 42829U 17042E   26191.38633588  .00002596  00000+0  18607-3 0  9998
2 42829  97.4303 348.1655 0017861  18.8202 341.3681 15.05092056490191
HAWK-A                  
1 43765U 18099H   26191.44827113  .00004564  00000+0  18328-3 0  9994
2 43765  97.3905 243.3829 0034224 200.7420 159.2431 15.24925601416642
HAWK-C                  
1 43799U 18099AT  26191.56820876  .00005828  00000+0  20836-3 0  9994
2 43799  97.3884 244.5291 0039834 200.2244 159.7420 15.28444337417484
SALSAT                  
1 46495U 20068K   26191.42889773  .00005381  00000+0  18731-3 0  9990
2 46495  97.8857 195.9138 0008699 210.5134 149.5600 15.30129687318917
HAWK-2B                 
1 47508U 21006CZ  26191.55428394  .00005168  00000+0  15392-3 0  9994
2 47508  97.2184 234.3861 0008637 115.6136 244.6001 15.35093531303087
HAWK-3B                 
1 48931U 21059BE  26191.00679719  .00035395  00000+0  27709-3 0  9992
2 48931  97.6649  29.9062 0004089 217.8107 142.2868 15.71525502281435
HAWK-3C                 
1 48948U 21059BX  26191.00649202  .00037702  00000+0  29488-3 0  9994
2 48948  97.6774  35.6306 0004404 218.4113 141.6836 15.71533406281432
HAWK-3A                 
1 48957U 21059CG  26191.00637890  .00037305  00000+0  29181-3 0  9993
2 48957  97.6711  32.8165 0004344 219.9841 140.1101 15.71532739281439
HAWK-5C                 
1 52754U 22057Y   26191.38716225  .00014129  00000+0  23464-3 0  9990
2 52754  97.6609 352.5682 0003253   5.8200 354.3089 15.52214999229946
HAWK-5B                 
1 52756U 22057AA  26191.38697120  .00013217  00000+0  21964-3 0  9994
2 52756  97.6625 350.9203 0003914 352.3729   7.7463 15.52211827229949
